NORAD_CAT_ID,OBJECT_NAME,OBJECT_TYPE,EPOCH,MEAN_MOTION,ECCENTRICITY,INCLINATION,RA_OF_ASC_NODE,ARG_OF_PERICENTER,MEAN_ANOMALY,BSTAR,MEAN_MOTION_DOT,MEAN_MOTION_DDOT,TLE_LINE0,TLE_LINE1,TLE_LINE2,SEMIMAJOR_AXIS,PERIOD,APOGEE,PERIGEE,DECAYED
55935.0,STARLINK-5920,PAYLOAD,2023-10-21 12:11:37,14.98332359,0.0002729,69.9993,318.5632,267.2064,92.8782,-3.5347e-05,-5.15e-06,0.0,0 STARLINK-5920,1 55935U 23037X   23294.50806797 -.00000515  00000-0 -35347-4 0  9993,2 55935  69.9993 318.5632 0002729 267.2064  92.8782 14.98332359 33637,6950.186,96.107,573.947,570.154,0.0
55935.0,STARLINK-5920,PAYLOAD,2023-10-21 18:36:09,14.98332705,0.000267,69.9995,317.8902,270.5496,89.5357,-5.0327e-05,-6.93e-06,0.0,0 STARLINK-5920,1 55935U 23037X   23294.77510812 -.00000693  00000-0 -50327-4 0  9994,2 55935  69.9995 317.8902 0002670 270.5496  89.5357 14.98332705 33672,6950.185,96.107,573.905,570.194,0.0
55935.0,STARLINK-5920,PAYLOAD,2023-10-22 04:12:58,14.98327058,0.0002406,69.9998,316.881,272.9039,87.1845,-0.00011049,-1.411e-05,0.0,0 STARLINK-5920,1 55935U 23037X   23295.17567521 -.00001411  00000-0 -11049-3 0  9994,2 55935  69.9998 316.8810 0002406 272.9039  87.1845 14.98327058 34074,6950.202,96.107,573.739,570.395,0.0
55935.0,STARLINK-5920,PAYLOAD,2023-10-22 12:13:43,14.98266095,0.0002262,69.9994,316.0382,278.3123,81.778,-0.00061893,-7.457e-05,0.0,0 STARLINK-5920,1 55935U 23037X   23295.50953068 -.00007457  00000-0 -61893-3 0  9994,2 55935  69.9994 316.0382 0002262 278.3123  81.7780 14.98266095 34127,6950.391,96.111,573.828,570.683,0.0
55935.0,STARLINK-5920,PAYLOAD,2023-10-22 18:38:15,14.98281167,0.0002087,69.9995,315.365,268.8678,91.2242,-0.00046024,-5.573e-05,0.0,0 STARLINK-5920,1 55935U 23037X   23295.77656563 -.00005573  00000-0 -46024-3 0  9999,2 55935  69.9995 315.3650 0002087 268.8678  91.2242 14.98281167 34162,6950.344,96.11,573.659,570.758,0.0
55935.0,STARLINK-5920,PAYLOAD,2023-10-23 04:15:00,14.98325179,0.0002702,69.9996,314.356,270.0405,90.0444,5.9143e-05,6.13e-06,0.0,0 STARLINK-5920,1 55935U 23037X   23296.17708656  .00000613  00000-0  59143-4 0  9990,2 55935  69.9996 314.3560 0002702 270.0405  90.0444 14.98325179 34229,6950.208,96.107,573.951,570.195,0.0
55935.0,STARLINK-5920,PAYLOAD,2023-10-23 18:40:12,14.9833018,0.0002664,69.9994,312.8407,271.7108,88.3746,9.0026e-05,9.81e-06,0.0,0 STARLINK-5920,1 55935U 23037X   23296.77792495  .00000981  00000-0  90026-4 0  9993,2 55935  69.9994 312.8407 0002664 271.7108  88.3746 14.98330180 33979,6950.192,96.107,573.909,570.206,0.0
55935.0,STARLINK-5920,PAYLOAD,2023-10-24 04:17:00,14.98332306,0.000286,69.9987,311.8303,270.3066,89.7765,0.00019427,2.226e-05,0.0,0 STARLINK-5920,1 55935U 23037X   23297.17848023  .00002226  00000-0  19427-3 0  9996,2 55935  69.9987 311.8303 0002860 270.3066  89.7765 14.98332306 34374,6950.186,96.107,574.039,570.063,0.0
55935.0,STARLINK-5920,PAYLOAD,2023-10-24 10:41:32,14.9833411,0.0002763,69.9988,311.1563,268.0519,92.0323,0.00022884,2.639e-05,0.0,0 STARLINK-5920,1 55935U 23037X   23297.44551785  .00002639  00000-0  22884-3 0  9991,2 55935  69.9988 311.1563 0002763 268.0519  92.0323 14.98334110 34074,6950.18,96.107,573.966,570.125,0.0
55935.0,STARLINK-5920,PAYLOAD,2023-10-25 10:43:33,14.98345445,0.0002416,69.9998,308.6318,262.0889,97.9996,0.00012012,1.341e-05,0.0,0 STARLINK-5920,1 55935U 23037X   23298.44691060  .00001341  00000-0  12012-3 0  9994,2 55935  69.9998 308.6318 0002416 262.0889  97.9996 14.98345445 34560,6950.145,96.106,573.689,570.331,0.0
55935.0,STARLINK-5920,PAYLOAD,2023-10-26 04:21:02,14.98337494,0.000279,69.9998,306.7796,270.1428,89.9412,-0.00010943,-1.399e-05,0.0,0 STARLINK-5920,1 55935U 23037X   23299.18127454 -.00001399  00000-0 -10943-3 0  9993,2 55935  69.9998 306.7796 0002790 270.1428  89.9412 14.98337494 34674,6950.17,96.107,573.974,570.096,0.0
55935.0,STARLINK-5920,PAYLOAD,2023-10-26 10:45:34,14.98340686,0.0002431,69.9999,306.1059,266.5208,93.5673,-0.00013112,-1.657e-05,0.0,0 STARLINK-5920,1 55935U 23037X   23299.44831151 -.00001657  00000-0 -13112-3 0  9996,2 55935  69.9999 306.1059 0002431 266.5208  93.5673 14.98340686 34372,6950.16,96.106,573.714,570.335,0.0
55935.0,STARLINK-5920,PAYLOAD,2023-10-27 04:23:02,14.98347422,0.0002582,69.9992,304.2545,273.2655,86.8209,-0.00021175,-2.62e-05,0.0,0 STARLINK-5920,1 55935U 23037X   23300.18266378 -.00002620  00000-0 -21175-3 0  9992,2 55935  69.9992 304.2545 0002582 273.2655  86.8209 14.98347422 34827,6950.139,96.106,573.799,570.209,0.0
55935.0,STARLINK-5920,PAYLOAD,2023-10-27 10:47:34,14.9834392,0.0002568,69.9997,303.5816,270.7868,89.2996,-0.00012395,-1.572e-05,0.0,0 STARLINK-5920,1 55935U 23037X   23300.44970123 -.00001572  00000-0 -12395-3 0  9990,2 55935  69.9997 303.5816 0002568 270.7868  89.2996 14.98343920 34523,6950.15,96.106,573.8,570.23,0.0
55935.0,STARLINK-5920,PAYLOAD,2023-10-27 17:12:06,14.98335171,0.0002298,70.0001,302.9075,273.0927,86.9969,-0.00012109,-1.538e-05,0.0,0 STARLINK-5920,1 55935U 23037X   23300.71674587 -.00001538  00000-0 -12109-3 0  9990,2 55935  70.0001 302.9075 0002298 273.0927  86.9969 14.98335171 34909,6950.177,96.107,573.639,570.445,0.0
55935.0,STARLINK-5920,PAYLOAD,2023-10-28 10:49:35,14.98339756,0.0002579,69.9993,301.0565,267.6115,92.4749,-0.0003064,-3.748e-05,0.0,0 STARLINK-5920,1 55935U 23037X   23301.45110574 -.00003748  00000-0 -30640-3 0  9998,2 55935  69.9993 301.0565 0002579 267.6115  92.4749 14.98339756 34675,6950.163,96.106,573.82,570.235,0.0
55935.0,STARLINK-5920,PAYLOAD,2023-10-28 17:14:07,14.98329302,0.0002728,69.9992,300.3836,270.8861,89.1986,-3.5183e-05,-5.13e-06,0.0,0 STARLINK-5920,1 55935U 23037X   23301.71814622 -.00000513  00000-0 -35183-4 0  9997,2 55935  69.9992 300.3836 0002728 270.8861  89.1986 14.98329302 35052,6950.195,96.107,573.956,570.164,0.0
55935.0,STARLINK-5920,PAYLOAD,2023-10-29 09:15:28,14.983322,0.000246,69.9995,298.6991,261.9368,98.1512,1.8002e-05,1.22e-06,0.0,0 STARLINK-5920,1 55935U 23037X   23302.38574152  .00000122  00000-0  18002-4 0  9997,2 55935  69.9995 298.6991 0002460 261.9368  98.1512 14.98332200 34811,6950.186,96.107,573.761,570.341,0.0
55935.0,STARLINK-5920,PAYLOAD,2023-10-29 17:16:09,14.98324316,0.0001871,70.0011,297.8575,279.0199,81.0748,-3.1912e-05,-4.73e-06,0.0,0 STARLINK-5920,1 55935U 23037X   23302.71955081 -.00000473  00000-0 -31912-4 0  9994,2 55935  70.0011 297.8575 0001871 279.0199  81.0748 14.98324316 35204,6950.21,96.107,573.376,570.775,0.0
55935.0,STARLINK-5920,PAYLOAD,2023-10-30 17:18:10,14.98330171,0.0002747,69.9997,295.332,281.493,78.592,-0.00011516,-1.467e-05,0.0,0 STARLINK-5920,1 55935U 23037X   23303.72094943 -.00001467  00000-0 -11516-3 0  9998,2 55935  69.9997 295.3320 0002747 281.4930  78.5920 14.98330171 35353,6950.192,96.107,573.967,570.148,0.0
55935.0,STARLINK-5920,PAYLOAD,2023-10-31 09:19:30,14.98327063,0.0002509,69.9994,293.6484,262.6523,97.4351,9.9168e-06,2.5e-07,0.0,0 STARLINK-5920,1 55935U 23037X   23304.38854757  .00000025  00000-0  99168-5 0  9996,2 55935  69.9994 293.6484 0002509 262.6523  97.4351 14.98327063 35115,6950.202,96.107,573.811,570.323,0.0
55935.0,STARLINK-5920,PAYLOAD,2023-10-31 17:20:11,14.98289169,0.0002541,69.9994,292.8073,286.1648,73.9231,0.00073189,8.641e-05,0.0,0 STARLINK-5920,1 55935U 23037X   23304.72235800  .00008641  00000-0  73189-3 0  9991,2 55935  69.9994 292.8073 0002541 286.1648  73.9231 14.98289169 35508,6950.319,96.11,573.95,570.418,0.0
55935.0,STARLINK-5920,PAYLOAD,2023-11-01 04:33:07,14.98325867,0.0002856,69.9994,291.6295,271.8459,88.2373,5.4135e-05,5.53e-06,0.0,0 STARLINK-5920,1 55935U 23037X   23305.18966742  .00000553  00000-0  54135-4 0  9993,2 55935  69.9994 291.6295 0002856 271.8459  88.2373 14.98325867 35570,6950.206,96.107,574.056,570.086,0.0
55935.0,STARLINK-5920,PAYLOAD,2023-11-01 09:21:31,14.98326977,0.0002711,69.9993,291.1253,265.0524,95.0325,6.1887e-05,6.45e-06,0.0,0 STARLINK-5920,1 55935U 23037X   23305.38994687  .00000645  00000-0  61887-4 0  9998,2 55935  69.9993 291.1253 0002711 265.0524  95.0325 14.98326977 35268,6950.202,96.107,573.951,570.183,0.0
55935.0,STARLINK-5920,PAYLOAD,2023-11-01 22:10:35,14.9833185,0.0002883,69.9995,289.7781,270.1874,89.8955,2.3456e-05,1.87e-06,0.0,0 STARLINK-5920,1 55935U 23037X   23305.92402474  .00000187  00000-0  23456-4 0  9997,2 55935  69.9995 289.7781 0002883 270.1874  89.8955 14.98331850 35349,6950.187,96.107,574.056,570.048,0.0
55935.0,STARLINK-5920,PAYLOAD,2023-11-02 04:35:07,14.98332892,0.0002666,69.9998,289.105,270.026,90.0594,3.1781e-05,2.86e-06,0.0,0 STARLINK-5920,1 55935U 23037X   23306.19106352  .00000286  00000-0  31781-4 0  9993,2 55935  69.9998 289.1050 0002666 270.0260  90.0594 14.98332892 35724,6950.184,96.107,573.902,570.196,0.0
55935.0,STARLINK-5920,PAYLOAD,2023-11-02 09:23:32,14.98331606,0.0002359,70.0002,288.6001,261.0855,99.0037,6.0356e-05,6.27e-06,0.0,0 STARLINK-5920,1 55935U 23037X   23306.39134313  .00000627  00000-0  60356-4 0  9992,2 55935  70.0002 288.6001 0002359 261.0855  99.0037 14.98331606 35411,6950.188,96.107,573.692,570.413,0.0
55935.0,STARLINK-5920,PAYLOAD,2023-11-02 15:48:03,14.9836745,0.0002412,70.0008,287.9257,277.1045,82.984,-0.00063317,-7.647e-05,0.0,0 STARLINK-5920,1 55935U 23037X   23306.65837607 -.00007647  00000-0 -63317-3 0  9997,2 55935  70.0008 287.9257 0002412 277.1045  82.9840 14.98367450 35791,6950.077,96.105,573.618,570.266,0.0
55935.0,STARLINK-5920,PAYLOAD,2023-11-03 04:37:09,14.98332662,0.000247,69.9998,286.5795,265.6727,94.415,-0.00010667,-1.365e-05,0.0,0 STARLINK-5920,1 55935U 23037X   23307.19246546 -.00001365  00000-0 -10667-3 0  9994,2 55935  69.9998 286.5795 0002470 265.6727  94.4150 14.98332662 35879,6950.185,96.107,573.766,570.333,0.0
55935.0,STARLINK-5920,PAYLOAD,2023-11-03 09:25:33,14.98318739,0.00022,70.0,286.0745,269.8212,90.2695,0.00021196,2.436e-05,0.0,0 STARLINK-5920,1 55935U 23037X   23307.39274817  .00002436  00000-0  21196-3 0  9995,2 55935  70.0000 286.0745 0002200 269.8212  90.2695 14.98318739 35565,6950.228,96.108,573.622,570.564,0.0
